NORAD_CAT_ID,OBJECT_NAME,OBJECT_TYPE,EPOCH,MEAN_MOTION,ECCENTRICITY,INCLINATION,RA_OF_ASC_NODE,ARG_OF_PERICENTER,MEAN_ANOMALY,BSTAR,MEAN_MOTION_DOT,MEAN_MOTION_DDOT,TLE_LINE0,TLE_LINE1,TLE_LINE2,SEMIMAJOR_AXIS,PERIOD,APOGEE,PERIGEE,DECAYED
50163.0,STARLINK-3306,PAYLOAD,2022-02-21 22:00:00,15.57795116,0.0001537,53.2169,43.2615,32.6759,330.5251,-0.0008516,-0.00064458,0.0,0 STARLINK-3306,1 50163U 21125H   22052.91667824 -.00064458  00000-0 -85160-3 0  9992,2 50163  53.2169  43.2615 0001537  32.6759 330.5251 15.57795116  3652,6772.177,92.438,395.083,393.001,0.0
50163.0,STARLINK-3306,PAYLOAD,2022-02-22 04:00:00,15.5780294,0.0001793,53.2174,42.0524,33.8518,292.1523,-0.0041458,-0.00302912,0.0,0 STARLINK-3306,1 50163U 21125H   22053.16667824 -.00302912  00000-0 -41458-2 0  9991,2 50163  53.2174  42.0524 0001793  33.8518 292.1523 15.57802940 13148,6772.154,92.438,395.233,392.805,0.0
50163.0,STARLINK-3306,PAYLOAD,2022-02-22 14:00:01,15.57545714,0.0001604,53.2173,40.037,40.3533,103.4891,-0.0042013,-0.00303958,0.0,0 STARLINK-3306,1 50163U 21125H   22053.58334491 -.00303958  00000-0 -42013-2 0  9997,2 50163  53.2173  40.0370 0001604  40.3533 103.4891 15.57545714  3677,6772.9,92.453,395.851,393.67800000000005,0.0
50163.0,STARLINK-3306,PAYLOAD,2022-02-22 22:00:00,15.57339295,0.0001761,53.2174,38.424,38.6662,175.1687,-0.0042203999999999,-0.00303025,0.0,0 STARLINK-3306,1 50163U 21125H   22053.91667824 -.00303025  00000-0 -42204-2 0  9990,2 50163  53.2174  38.4240 0001761  38.6662 175.1687 15.57339295  3687,6773.498000000001,92.465,396.556,394.17,0.0
50163.0,STARLINK-3306,PAYLOAD,2022-02-23 06:00:00,15.57132925,0.0002,53.2176,36.8151,31.6436,251.9347,-0.0042603,-0.00303524,0.0,0 STARLINK-3306,1 50163U 21125H   22054.25001157 -.00303524  00000-0 -42603-2 0  9996,2 50163  53.2176  36.8151 0002000  31.6436 251.9347 15.57132925 13319,6774.097,92.478,397.316,394.607,0.0
50163.0,STARLINK-3306,PAYLOAD,2022-02-23 14:00:01,15.56927104,0.0001509,53.2173,35.2037,41.6451,311.4299,-0.0042978,-0.00303807,0.0,0 STARLINK-3306,1 50163U 21125H   22054.58334491 -.00303807  00000-0 -42978-2 0  9991,2 50163  53.2173  35.2037 0001509  41.6451 311.4299 15.56927104  3691,6774.694,92.49,397.581,395.536,0.0
50163.0,STARLINK-3306,PAYLOAD,2022-02-23 22:00:00,15.56719442,0.000165,53.2175,33.5925,36.462,25.8626,-0.0042837,-0.003006,0.0,0 STARLINK-3306,1 50163U 21125H   22054.91667824 -.00300600  00000-0 -42837-2 0  9999,2 50163  53.2175  33.5925 0001650  36.4620  25.8626 15.56719442  3703,6775.295999999999,92.502,398.279,396.043,0.0
50163.0,STARLINK-3306,PAYLOAD,2022-02-24 14:00:01,15.56309543,0.0001631,53.2173,30.3749,42.6448,157.4329,-0.0044249,-0.00305598,0.0,0 STARLINK-3306,1 50163U 21125H   22055.58334491 -.00305598  00000-0 -44249-2 0  9994,2 50163  53.2173  30.3749 0001631  42.6448 157.4329 15.56309543  3671,6776.486,92.527,399.456,397.245,0.0
50163.0,STARLINK-3306,PAYLOAD,2022-02-24 22:00:00,15.559357,0.0001557,53.2168,28.7659,38.189,230.4852,-0.00088665,-0.00062631,0.0,0 STARLINK-3306,1 50163U 21125H   22055.91667824 -.00062631  00000-0 -88665-3 0  9999,2 50163  53.2168  28.7659 0001557  38.1890 230.4852 15.55935700  3654,6777.571,92.549,400.491,398.381,0.0
50163.0,STARLINK-3306,PAYLOAD,2022-02-25 06:00:00,15.55897224,0.0001823,53.2174,27.1592,34.005,302.8354,-0.004494,-0.00305656,0.0,0 STARLINK-3306,1 50163U 21125H   22056.25001157 -.00305656  00000-0 -44940-2 0  9992,2 50163  53.2174  27.1592 0001823  34.0050 302.8354 15.55897224 13626,6777.683000000001,92.551,400.783,398.312,0.0
50163.0,STARLINK-3306,PAYLOAD,2022-02-25 14:00:01,15.55689989,0.0001434,53.2175,25.5506,43.7991,1.0524,-0.0044922,-0.00303267,0.0,0 STARLINK-3306,1 50163U 21125H   22056.58334491 -.00303267  00000-0 -44922-2 0  9994,2 50163  53.2175  25.5506 0001434  43.7991   1.0524 15.55689989  3682,6778.285,92.563,401.122,399.17800000000005,0.0
50163.0,STARLINK-3306,PAYLOAD,2022-02-25 22:00:00,15.55482937,0.00017,53.2177,23.9426,37.2793,75.3352,-0.0044898,-0.00300895,0.0,0 STARLINK-3306,1 50163U 21125H   22056.91667824 -.00300895  00000-0 -44898-2 0  9996,2 50163  53.2177  23.9426 0001700  37.2793  75.3352 15.55482937  3688,6778.886,92.576,401.904,399.599,0.0
50163.0,STARLINK-3306,PAYLOAD,2022-02-26 14:00:01,15.55073387,0.0001623,53.2174,20.7305,43.2749,204.1202,-0.0046549,-0.00307027,0.0,0 STARLINK-3306,1 50163U 21125H   22057.58334491 -.00307027  00000-0 -46549-2 0  9990,2 50163  53.2174  20.7305 0001623  43.2749 204.1202 15.55073387 13837,6780.076,92.6,403.042,400.841,0.0
50163.0,STARLINK-3306,PAYLOAD,2022-02-26 22:00:00,15.54865138,0.0001767,53.2177,19.1243,35.79400000000001,278.621,-0.0046084,-0.00301845,0.0,0 STARLINK-3306,1 50163U 21125H   22057.91667824 -.00301845  00000-0 -46084-2 0  9992,2 50163  53.2177  19.1243 0001767  35.7940 278.6210 15.54865138  3680,6780.682,92.613,403.745,401.349,0.0
50163.0,STARLINK-3306,PAYLOAD,2022-02-27 14:00:01,15.54452898,0.0001533,53.2174,15.9153,40.2579,47.4521,-0.0046961999999999,-0.00302915,0.0,0 STARLINK-3306,1 50163U 21125H   22058.58334491 -.00302915  00000-0 -46962-2 0  9991,2 50163  53.2174  15.9153 0001533  40.2579  47.4521 15.54452898  3683,6781.88,92.637,404.785,402.706,0.0
50163.0,STARLINK-3306,PAYLOAD,2022-02-27 22:00:00,15.54245819,0.0001867,53.2175,14.3105,35.1379,118.8487,-0.0046969,-0.00300768,0.0,0 STARLINK-3306,1 50163U 21125H   22058.91667824 -.00300768  00000-0 -46969-2 0  9998,2 50163  53.2175  14.3105 0001867  35.1379 118.8487 15.54245819 14044,6782.483,92.649,405.614,403.082,0.0
50163.0,STARLINK-3306,PAYLOAD,2022-02-28 14:00:01,15.53836319,0.0001539,53.2175,11.1042,45.0465,240.748,-0.0048665,-0.00306738,0.0,0 STARLINK-3306,1 50163U 21125H   22059.58334491 -.00306738  00000-0 -48665-2 0  9991,2 50163  53.2175  11.1042 0001539  45.0465 240.7480 15.53836319  3687,6783.674,92.674,406.583,404.495,0.0
50163.0,STARLINK-3306,PAYLOAD,2022-02-28 22:00:00,15.53628905,0.0001733,53.2177,9.5013,35.5028,315.825,-0.0048511,-0.00303594,0.0,0 STARLINK-3306,1 50163U 21125H   22059.91667824 -.00303594  00000-0 -48511-2 0  9994,2 50163  53.2177   9.5013 0001733  35.5028 315.8250 15.53628905  3682,6784.278,92.686,407.319,404.967,0.0
50163.0,STARLINK-3306,PAYLOAD,2022-03-01 06:00:00,15.53421058,0.0001791,53.2176,7.901,32.8986,23.7141,-0.0048553999999999,-0.00301649,0.0,0 STARLINK-3306,1 50163U 21125H   22060.25001157 -.00301649  00000-0 -48554-2 0  9990,2 50163  53.2176   7.9010 0001791  32.8986  23.7141 15.53421058 14245,6784.8830000000025,92.699,407.963,405.533,0.0
50163.0,STARLINK-3306,PAYLOAD,2022-03-01 14:00:01,15.53215179,0.0001604,53.2175,6.2976,39.87,81.7808,-0.0048888,-0.00301454,0.0,0 STARLINK-3306,1 50163U 21125H   22060.58334491 -.00301454  00000-0 -48888-2 0  9990,2 50163  53.2175   6.2976 0001604  39.8700  81.7808 15.53215179  3675,6785.483,92.711,408.436,406.259,0.0
50163.0,STARLINK-3306,PAYLOAD,2022-03-01 22:00:01,15.53008744,0.0001897,53.2177,4.6964,34.4315,152.0739,-0.0049144,-0.00300808,0.0,0 STARLINK-3306,1 50163U 21125H   22060.91668981 -.00300808  00000-0 -49144-2 0  9999,2 50163  53.2177   4.6964 0001897  34.4315 152.0739 15.53008744  3687,6786.084,92.723,409.236,406.662,0.0
50163.0,STARLINK-3306,PAYLOAD,2022-03-02 14:00:01,15.52598195,0.0001582,53.2174,1.4956,40.7842,274.4923,-0.0050526,-0.00304534,0.0,0 STARLINK-3306,1 50163U 21125H   22061.58334491 -.00304534  00000-0 -50526-2 0  9995,2 50163  53.2174   1.4956 0001582  40.7842 274.4923 15.52598195 14450,6787.28,92.748,410.219,408.072,0.0
50163.0,STARLINK-3306,PAYLOAD,2022-03-02 22:00:00,15.52392402,0.0001643,53.2175,359.8961,36.8691,342.4535,-0.0050961,-0.00304868,0.0,0 STARLINK-3306,1 50163U 21125H   22061.91667824 -.00304868  00000-0 -50961-2 0  9994,2 50163  53.2175 359.8961 0001643  36.8691 342.4535 15.52392402  3673,6787.88,92.76,410.86,408.63,0.0
50163.0,STARLINK-3306,PAYLOAD,2022-03-03 14:00:01,15.51977455,0.0001622,53.2174,356.6981,40.2165,106.4571,-0.0050867,-0.00299973,0.0,0 STARLINK-3306,1 50163U 21125H   22062.58334491 -.00299973  00000-0 -50867-2 0  9994,2 50163  53.2174 356.6981 0001622  40.2165 106.4571 15.51977455  3686,6789.09,92.785,412.056,409.854,0.0
50163.0,STARLINK-3306,PAYLOAD,2022-03-03 22:00:00,15.51771811,0.0001816,53.2176,355.1002,38.1997,171.77700000000004,-0.0051429,-0.00301019,0.0,0 STARLINK-3306,1 50163U 21125H   22062.91667824 -.00301019  00000-0 -51429-2 0  9990,2 50163  53.2176 355.1002 0001816  38.1997 171.7770 15.51771811 14664,6789.69,92.797,412.788,410.322,0.0
50163.0,STARLINK-3306,PAYLOAD,2022-03-04 14:00:01,15.51359717,0.0001656,53.2176,351.9049,36.1448,299.7603,-0.005233,-0.00301755,0.0,0 STARLINK-3306,1 50163U 21125H   22063.58335648 -.00301755  00000-0 -52330-2 0  9999,2 50163  53.2176 351.9049 0001656  36.1448 299.7603 15.51359717  3672,6790.892,92.822,413.882,411.633,0.0
50163.0,STARLINK-3306,PAYLOAD,2022-03-04 22:00:00,15.51155538,0.0001618,53.2178,350.3089,38.4795,359.9201,-0.0053352,-0.00305263,0.0,0 STARLINK-3306,1 50163U 21125H   22063.91667824 -.00305263  00000-0 -53352-2 0  9993,2 50163  53.2178 350.3089 0001618  38.4795 359.9201 15.51155538  3666,6791.488,92.834,414.452,412.254,0.0
50163.0,STARLINK-3306,PAYLOAD,2022-03-05 06:00:00,15.50944316,0.0001756,53.2174,348.714,34.5819,66.1311,-0.0052033,-0.00295845,0.0,0 STARLINK-3306,1 50163U 21125H   22064.25001157 -.00295845  00000-0 -52033-2 0  9991,2 50163  53.2174 348.7140 0001756  34.5819  66.1311 15.50944316 14860,6792.105,92.847,415.162,412.777,0.0
50163.0,STARLINK-3306,PAYLOAD,2022-03-05 14:00:01,15.50739993,0.0001584,53.2174,347.1163,42.6047,120.1735,-0.0052981,-0.00298916,0.0,0 STARLINK-3306,1 50163U 21125H   22064.58334491 -.00298916  00000-0 -52981-2 0  9991,2 50163  53.2174 347.1163 0001584  42.6047 120.1735 15.50739993  3659,6792.701,92.859,415.642,413.49,0.0
